COSMOS 2058             
1 20465U 90010A   26069.83990122  .00004924  00000+0  29034-3 0  9993
2 20465  82.4669  46.2946 0009182 340.6499  19.4381 15.11333784942412
SL-14 R/B               
1 20466U 90010B   26069.63114964  .00000513  00000+0  59318-4 0  9993
2 20466  82.4987 266.5042 0018480 299.0119  60.9244 14.83569713928624
SL-14 R/B               
1 20511U 90018B   26069.85243443  .00000638  00000+0  77042-4 0  9993
2 20511  82.5205 222.0026 0017669  88.5268 271.7970 14.82146300922750
HST                     
1 20580U 90037B   26069.20376849  .00009369  00000+0  31039-3 0  9991
2 20580  28.4717  36.4910 0001862 130.7593 229.3165 15.29493470773395
SL-16 R/B               
1 20625U 90046B   26069.89895085 -.00000211  00000+0 -84397-4 0  9999
2 20625  70.9986 295.3750 0016227 297.9865  61.9615 14.15011999848560
COSMOS 2084             
1 20663U 90055A   26069.85100347  .00002916  00000+0  21421-3 0  9997
2 20663  62.7921 331.6176 0016922 190.3585 169.7170 15.05659846936495
SL-6 R/B(2)             
1 20666U 90055D   26069.83523259  .00002543  00000+0  19852-3 0  9990
2 20666  62.7825 249.9546 0024960 347.3326  12.7143 15.03600863938369
SL-8 R/B                
1 20775U 90078B   26069.85232782  .00019347  00000+0  56992-3 0  9992
2 20775  82.9009 250.2649 0361983  10.0883 350.7347 14.89106905809479
SL-8 R/B                
1 21088U 91006B   26069.79849727  .00000080  00000+0  64914-4 0  9996
2 21088  82.9466 169.2217 0023015  35.2911  85.1935 13.77494391764226
OKEAN-3                 
1 21397U 91039A   26069.80943676  .00004425  00000+0  31097-3 0  9997
2 21397  82.5193 335.7590 0013858 333.9632  26.0896 15.04815448865200
COSMOS 2151             
1 21422U 91042A   26069.81730824  .00001875  00000+0  14798-3 0  9995
2 21422  82.4930  82.5882 0013963  60.4873 299.7742 15.00108618863368
SL-14 R/B               
1 21423U 91042B   26069.83815418  .00000626  00000+0  76187-4 0  9995
2 21423  82.4926 219.1053 0015842 234.5800 125.3936 14.81830981853242
