CCSDS_OMM_VERS = 2.0
CREATION_DATE  = 
ORIGINATOR     = 

OBJECT_NAME    = COSMOS 2058
OBJECT_ID      = 1990-010A
CENTER_NAME    = EARTH
REF_FRAME      = TEME
TIME_SYSTEM    = UTC
MEAN_ELEMENT_THEORY = SGP/SGP4

EPOCH          = 2026-03-10T20:09:27.465408
MEAN_MOTION    = 15.11333784
ECCENTRICITY   = .0009182
INCLINATION    = 82.4669
RA_OF_ASC_NODE = 46.2946
ARG_OF_PERICENTER = 340.6499
MEAN_ANOMALY   = 19.4381

EPHEMERIS_TYPE = 0
CLASSIFICATION_TYPE = U
NORAD_CAT_ID   = 20465
ELEMENT_SET_NO = 999
REV_AT_EPOCH   = 94241
BSTAR          = .29034E-3
MEAN_MOTION_DOT = .4924E-4
MEAN_MOTION_DDOT = 0

CCSDS_OMM_VERS = 2.0
CREATION_DATE  = 
ORIGINATOR     = 

OBJECT_NAME    = SL-14 R/B
OBJECT_ID      = 1990-010B
CENTER_NAME    = EARTH
REF_FRAME      = TEME
TIME_SYSTEM    = UTC
MEAN_ELEMENT_THEORY = SGP/SGP4

EPOCH          = 2026-03-10T15:08:51.328896
MEAN_MOTION    = 14.83569713
ECCENTRICITY   = .001848
INCLINATION    = 82.4987
RA_OF_ASC_NODE = 266.5042
ARG_OF_PERICENTER = 299.0119
MEAN_ANOMALY   = 60.9244

EPHEMERIS_TYPE = 0
CLASSIFICATION_TYPE = U
NORAD_CAT_ID   = 20466
ELEMENT_SET_NO = 999
REV_AT_EPOCH   = 92862
BSTAR          = .59318E-4
MEAN_MOTION_DOT = .513E-5
MEAN_MOTION_DDOT = 0

CCSDS_OMM_VERS = 2.0
CREATION_DATE  = 
ORIGINATOR     = 

OBJECT_NAME    = SL-14 R/B
OBJECT_ID      = 1990-018B
CENTER_NAME    = EARTH
REF_FRAME      = TEME
TIME_SYSTEM    = UTC
MEAN_ELEMENT_THEORY = SGP/SGP4

EPOCH          = 2026-03-10T20:27:30.334752
MEAN_MOTION    = 14.82146300
ECCENTRICITY   = .0017669
INCLINATION    = 82.5205
RA_OF_ASC_NODE = 222.0026
ARG_OF_PERICENTER = 88.5268
MEAN_ANOMALY   = 271.7970

EPHEMERIS_TYPE = 0
CLASSIFICATION_TYPE = U
NORAD_CAT_ID   = 20511
ELEMENT_SET_NO = 999
REV_AT_EPOCH   = 92275
BSTAR          = .77042E-4
MEAN_MOTION_DOT = .638E-5
MEAN_MOTION_DDOT = 0

CCSDS_OMM_VERS = 2.0
CREATION_DATE  = 
ORIGINATOR     = 

OBJECT_NAME    = HST
OBJECT_ID      = 1990-037B
CENTER_NAME    = EARTH
REF_FRAME      = TEME
TIME_SYSTEM    = UTC
MEAN_ELEMENT_THEORY = SGP/SGP4

EPOCH          = 2026-03-10T04:53:25.597536
MEAN_MOTION    = 15.29493470
ECCENTRICITY   = .00018621
INCLINATION    = 28.4717
RA_OF_ASC_NODE = 36.4910
ARG_OF_PERICENTER = 130.7593
MEAN_ANOMALY   = 229.3165

EPHEMERIS_TYPE = 0
CLASSIFICATION_TYPE = U
NORAD_CAT_ID   = 20580
ELEMENT_SET_NO = 999
REV_AT_EPOCH   = 77339
BSTAR          = .3103929E-3
MEAN_MOTION_DOT = .9369E-4
MEAN_MOTION_DDOT = 0

CCSDS_OMM_VERS = 2.0
CREATION_DATE  = 
ORIGINATOR     = 

OBJECT_NAME    = SL-16 R/B
OBJECT_ID      = 1990-046B
CENTER_NAME    = EARTH
REF_FRAME      = TEME
TIME_SYSTEM    = UTC
MEAN_ELEMENT_THEORY = SGP/SGP4

EPOCH          = 2026-03-10T21:34:29.353440
MEAN_MOTION    = 14.15011999
ECCENTRICITY   = .0016227
INCLINATION    = 70.9986
RA_OF_ASC_NODE = 295.3750
ARG_OF_PERICENTER = 297.9865
MEAN_ANOMALY   = 61.9615

EPHEMERIS_TYPE = 0
CLASSIFICATION_TYPE = U
NORAD_CAT_ID   = 20625
ELEMENT_SET_NO = 999
REV_AT_EPOCH   = 84856
BSTAR          = -.84397E-4
MEAN_MOTION_DOT = -.211E-5
MEAN_MOTION_DDOT = 0

CCSDS_OMM_VERS = 2.0
CREATION_DATE  = 
ORIGINATOR     = 

OBJECT_NAME    = COSMOS 2084
OBJECT_ID      = 1990-055A
CENTER_NAME    = EARTH
REF_FRAME      = TEME
TIME_SYSTEM    = UTC
MEAN_ELEMENT_THEORY = SGP/SGP4

EPOCH          = 2026-03-10T20:25:26.699808
MEAN_MOTION    = 15.05659846
ECCENTRICITY   = .0016922
INCLINATION    = 62.7921
RA_OF_ASC_NODE = 331.6176
ARG_OF_PERICENTER = 190.3585
MEAN_ANOMALY   = 169.7170

EPHEMERIS_TYPE = 0
CLASSIFICATION_TYPE = U
NORAD_CAT_ID   = 20663
ELEMENT_SET_NO = 999
REV_AT_EPOCH   = 93649
BSTAR          = .21421E-3
MEAN_MOTION_DOT = .2916E-4
MEAN_MOTION_DDOT = 0

CCSDS_OMM_VERS = 2.0
CREATION_DATE  = 
ORIGINATOR     = 

OBJECT_NAME    = SL-6 R/B(2)
OBJECT_ID      = 1990-055D
CENTER_NAME    = EARTH
REF_FRAME      = TEME
TIME_SYSTEM    = UTC
MEAN_ELEMENT_THEORY = SGP/SGP4

EPOCH          = 2026-03-10T20:02:44.095776
MEAN_MOTION    = 15.03600863
ECCENTRICITY   = .002496
INCLINATION    = 62.7825
RA_OF_ASC_NODE = 249.9546
ARG_OF_PERICENTER = 347.3326
MEAN_ANOMALY   = 12.7143

EPHEMERIS_TYPE = 0
CLASSIFICATION_TYPE = U
NORAD_CAT_ID   = 20666
ELEMENT_SET_NO = 999
REV_AT_EPOCH   = 93836
BSTAR          = .19852E-3
MEAN_MOTION_DOT = .2543E-4
MEAN_MOTION_DDOT = 0

CCSDS_OMM_VERS = 2.0
CREATION_DATE  = 
ORIGINATOR     = 

OBJECT_NAME    = SL-8 R/B
OBJECT_ID      = 1990-078B
CENTER_NAME    = EARTH
REF_FRAME      = TEME
TIME_SYSTEM    = UTC
MEAN_ELEMENT_THEORY = SGP/SGP4

EPOCH          = 2026-03-10T20:27:21.123648
MEAN_MOTION    = 14.89106905
ECCENTRICITY   = .0361983
INCLINATION    = 82.9009
RA_OF_ASC_NODE = 250.2649
ARG_OF_PERICENTER = 10.0883
MEAN_ANOMALY   = 350.7347

EPHEMERIS_TYPE = 0
CLASSIFICATION_TYPE = U
NORAD_CAT_ID   = 20775
ELEMENT_SET_NO = 999
REV_AT_EPOCH   = 80947
BSTAR          = .56992E-3
MEAN_MOTION_DOT = .19347E-3
MEAN_MOTION_DDOT = 0

CCSDS_OMM_VERS = 2.0
CREATION_DATE  = 
ORIGINATOR     = 

OBJECT_NAME    = SL-8 R/B
OBJECT_ID      = 1991-006B
CENTER_NAME    = EARTH
REF_FRAME      = TEME
TIME_SYSTEM    = UTC
MEAN_ELEMENT_THEORY = SGP/SGP4

EPOCH          = 2026-03-10T19:09:50.164128
MEAN_MOTION    = 13.77494391
ECCENTRICITY   = .0023015
INCLINATION    = 82.9466
RA_OF_ASC_NODE = 169.2217
ARG_OF_PERICENTER = 35.2911
MEAN_ANOMALY   = 85.1935

EPHEMERIS_TYPE = 0
CLASSIFICATION_TYPE = U
NORAD_CAT_ID   = 21088
ELEMENT_SET_NO = 999
REV_AT_EPOCH   = 76422
BSTAR          = .64914E-4
MEAN_MOTION_DOT = .8E-6
MEAN_MOTION_DDOT = 0

CCSDS_OMM_VERS = 2.0
CREATION_DATE  = 
ORIGINATOR     = 

OBJECT_NAME    = OKEAN-3
OBJECT_ID      = 1991-039A
CENTER_NAME    = EARTH
REF_FRAME      = TEME
TIME_SYSTEM    = UTC
MEAN_ELEMENT_THEORY = SGP/SGP4

EPOCH          = 2026-03-10T19:25:35.336064
MEAN_MOTION    = 15.04815448
ECCENTRICITY   = .0013858
INCLINATION    = 82.5193
RA_OF_ASC_NODE = 335.7590
ARG_OF_PERICENTER = 333.9632
MEAN_ANOMALY   = 26.0896

EPHEMERIS_TYPE = 0
CLASSIFICATION_TYPE = U
NORAD_CAT_ID   = 21397
ELEMENT_SET_NO = 999
REV_AT_EPOCH   = 86520
BSTAR          = .31097E-3
MEAN_MOTION_DOT = .4425E-4
MEAN_MOTION_DDOT = 0

CCSDS_OMM_VERS = 2.0
CREATION_DATE  = 
ORIGINATOR     = 

OBJECT_NAME    = COSMOS 2151
OBJECT_ID      = 1991-042A
CENTER_NAME    = EARTH
REF_FRAME      = TEME
TIME_SYSTEM    = UTC
MEAN_ELEMENT_THEORY = SGP/SGP4

EPOCH          = 2026-03-10T19:36:55.431936
MEAN_MOTION    = 15.00108618
ECCENTRICITY   = .0013963
INCLINATION    = 82.4930
RA_OF_ASC_NODE = 82.5882
ARG_OF_PERICENTER = 60.4873
MEAN_ANOMALY   = 299.7742

EPHEMERIS_TYPE = 0
CLASSIFICATION_TYPE = U
NORAD_CAT_ID   = 21422
ELEMENT_SET_NO = 999
REV_AT_EPOCH   = 86336
BSTAR          = .14798E-3
MEAN_MOTION_DOT = .1875E-4
MEAN_MOTION_DDOT = 0

CCSDS_OMM_VERS = 2.0
CREATION_DATE  = 
ORIGINATOR     = 

OBJECT_NAME    = SL-14 R/B
OBJECT_ID      = 1991-042B
CENTER_NAME    = EARTH
REF_FRAME      = TEME
TIME_SYSTEM    = UTC
MEAN_ELEMENT_THEORY = SGP/SGP4

EPOCH          = 2026-03-10T20:06:56.521152
MEAN_MOTION    = 14.81830981
ECCENTRICITY   = .0015842
INCLINATION    = 82.4926
RA_OF_ASC_NODE = 219.1053
ARG_OF_PERICENTER = 234.5800
MEAN_ANOMALY   = 125.3936

EPHEMERIS_TYPE = 0
CLASSIFICATION_TYPE = U
NORAD_CAT_ID   = 21423
ELEMENT_SET_NO = 999
REV_AT_EPOCH   = 85324
BSTAR          = .76187E-4
MEAN_MOTION_DOT = .626E-5
MEAN_MOTION_DDOT = 0

